GLOBALSTAR M063         
1 26081U 00008A   26018.40130460 -.00000072  00000+0  15353-3 0  9999
2 26081  51.9949 264.7727 0005193  15.4169 155.2784 11.86179871183110
GLOBALSTAR M062         
1 26082U 00008B   26018.54018874 -.00000097  00000+0  71844-5 0  9995
2 26082  51.9824 182.4849 0006740 202.3505 198.0452 12.43481742523419
GLOBALSTAR M060         
1 26083U 00008C   26018.36377543 -.00000138  00000+0 -46590-3 0  9992
2 26083  51.9997 173.4562 0003229 181.9223 188.3226 12.17672922178589
GLOBALSTAR M064         
1 26084U 00008D   26018.26955863 -.00000056  00000+0  39275-3 0  9999
2 26084  52.0058   1.4103 0001602 105.6925 254.4085 11.88539426192678
GLOBALSTAR M065         
1 31571U 07020A   26018.51543870 -.00000033  00000+0  39396-3 0  9995
2 31571  51.9902 290.8715 0010710  65.1167 105.7837 12.62018339860596
GLOBALSTAR M069         
1 31573U 07020C   26018.54776355 -.00000063  00000+0  27031-3 0  9992
2 31573  52.0055 315.6654 0001317 186.3230 344.8863 12.23466300860482
GLOBALSTAR M072         
1 31574U 07020D   26018.65162301 -.00000099  00000+0 -20038-3 0  9995
2 31574  51.9930 138.3500 0001413  62.8321 310.3522 11.91654927857157
GLOBALSTAR M071         
1 31576U 07020F   26018.09430209 -.00000133  00000+0 -41601-3 0  9998
2 31576  52.0088 348.6235 0000657 160.5245 280.4638 12.18263901521135
